NORAD_CAT_ID,OBJECT_NAME,OBJECT_TYPE,EPOCH,MEAN_MOTION,ECCENTRICITY,INCLINATION,RA_OF_ASC_NODE,ARG_OF_PERICENTER,MEAN_ANOMALY,BSTAR,MEAN_MOTION_DOT,MEAN_MOTION_DDOT,TLE_LINE0,TLE_LINE1,TLE_LINE2,SEMIMAJOR_AXIS,PERIOD,APOGEE,PERIGEE,DECAYED
56468.0,STARLINK-5998,PAYLOAD,2023-11-24 11:23:37,14.98329246,0.0003446,69.9994,92.6723,273.2965,86.78,-6.6295e-05,-8.84e-06,0.0,0 STARLINK-5998,1 56468U 23064W   23328.47473881 -.00000884  00000-0 -66295-4 0  9998,2 56468  69.9994  92.6723 0003446 273.2965  86.7800 14.98329246 30355,6950.195,96.107,574.455,569.665,0.0
56468.0,STARLINK-5998,PAYLOAD,2023-11-24 14:35:53,14.98330055,0.0002716,70.001,92.3372,255.9148,104.171,-2.0609e-05,-3.39e-06,0.0,0 STARLINK-5998,1 56468U 23064W   23328.60825645 -.00000339  00000-0 -20609-4 0  9996,2 56468  70.0010  92.3372 0002716 255.9148 104.1710 14.98330055 30011,6950.193,96.107,573.945,570.17,0.0
56468.0,STARLINK-5998,PAYLOAD,2023-11-24 17:48:08,14.98337509,0.0003097,69.9999,91.9993,267.1951,92.8853,3.1424e-05,2.82e-06,0.0,0 STARLINK-5998,1 56468U 23064W   23328.74177013  .00000282  00000-0  31424-4 0  9992,2 56468  69.9999  91.9993 0003097 267.1951  92.8853 14.98337509 30391,6950.17,96.107,574.187,569.882,0.0
56468.0,STARLINK-5998,PAYLOAD,2023-11-25 14:37:54,14.9832542,0.0002683,70.0011,89.8132,254.9269,105.1593,0.00018558,2.122e-05,0.0,0 STARLINK-5998,1 56468U 23064W   23329.60965366  .00002122  00000-0  18558-3 0  9991,2 56468  70.0011  89.8132 0002683 254.9269 105.1593 14.98325420 30169,6950.207,96.107,573.937,570.207,0.0
56468.0,STARLINK-5998,PAYLOAD,2023-11-25 17:50:10,14.9832781,0.000269,70.0013,89.4766,256.1018,103.9842,0.0001904,2.179e-05,0.0,0 STARLINK-5998,1 56468U 23064W   23329.74317218  .00002179  00000-0  19040-3 0  9992,2 56468  70.0013  89.4766 0002690 256.1018 103.9842 14.98327810 30184,6950.2,96.107,573.934,570.195,0.0
56468.0,STARLINK-5998,PAYLOAD,2023-11-26 11:27:37,14.98353156,0.0002749,70.001,87.6253,257.5447,102.5404,-8.2933e-05,-1.083e-05,0.0,0 STARLINK-5998,1 56468U 23064W   23330.47752073 -.00001083  00000-0 -82933-4 0  9993,2 56468  70.0010  87.6253 0002749 257.5447 102.5404 14.98353156 30651,6950.121,96.106,573.897,570.076,0.0
56468.0,STARLINK-5998,PAYLOAD,2023-11-26 13:03:45,14.98345624,0.0002626,70.001,87.4568,256.3353,103.7514,4.4837e-05,4.42e-06,0.0,0 STARLINK-5998,1 56468U 23064W   23330.54428127  .00000442  00000-0  44837-4 0  9998,2 56468  70.0010  87.4568 0002626 256.3353 103.7514 14.98345624 30303,6950.145,96.106,573.835,570.184,0.0
56468.0,STARLINK-5998,PAYLOAD,2023-11-26 17:52:09,14.98342316,0.0002836,70.0011,86.9523,263.4706,96.613,0.00012179,1.361e-05,0.0,0 STARLINK-5998,1 56468U 23064W   23330.74455999  .00001361  00000-0  12179-3 0  9991,2 56468  70.0011  86.9523 0002836 263.4706  96.6130 14.98342316 30335,6950.155,96.106,573.991,570.049,0.0
56468.0,STARLINK-5998,PAYLOAD,2023-11-27 11:29:40,14.98318885,0.0002913,70.0009,85.1011,262.8947,97.188,-0.00021623,-2.671e-05,0.0,0 STARLINK-5998,1 56468U 23064W   23331.47894410 -.00002671  00000-0 -21623-3 0  9998,2 56468  70.0009  85.1011 0002913 262.8947  97.1880 14.98318885 30805,6950.227,96.108,574.117,570.068,0.0
56468.0,STARLINK-5998,PAYLOAD,2023-11-27 14:41:57,14.98312418,0.0002531,70.0023,84.7648,245.9482,114.1412,-0.00024128,-2.969e-05,0.0,0 STARLINK-5998,1 56468U 23064W   23331.61246929 -.00002969  00000-0 -24128-3 0  9993,2 56468  70.0023  84.7648 0002531 245.9482 114.1412 14.98312418 30463,6950.247,96.108,573.871,570.353,0.0
56468.0,STARLINK-5998,PAYLOAD,2023-11-27 17:54:13,14.98318885,0.0002844,70.0007,84.4274,260.7025,99.3813,-0.00019463,-2.414e-05,0.0,0 STARLINK-5998,1 56468U 23064W   23331.74598513 -.00002414  00000-0 -19463-3 0  9997,2 56468  70.0007  84.4274 0002844 260.7025  99.3813 14.98318885 30487,6950.227,96.108,574.069,570.116,0.0
56468.0,STARLINK-5998,PAYLOAD,2023-11-28 11:31:35,14.98399378,0.0002684,70.0023,82.5763,241.0326,119.0564,0.00069478,8.222e-05,0.0,0 STARLINK-5998,1 56468U 23064W   23332.48027129  .00008222  00000-0  69478-3 0  9991,2 56468  70.0023  82.5763 0002684 241.0326 119.0564 14.98399378 30956,6949.978,96.103,573.709,569.978,0.0
56468.0,STARLINK-5998,PAYLOAD,2023-11-28 14:43:47,14.98449953,0.0003102,70.0015,82.2399,260.5302,99.5506,0.0011988,0.00014285,0.0,0 STARLINK-5998,1 56468U 23064W   23332.61373954  .00014285  00000-0  11988-2 0  9994,2 56468  70.0015  82.2399 0003102 260.5302  99.5506 14.98449953 30611,6949.822,96.099,573.843,569.531,0.0
56468.0,STARLINK-5998,PAYLOAD,2023-11-28 17:56:08,14.98380356,0.0003031,70.0007,81.9007,273.2768,86.8045,0.00038433,4.502e-05,0.0,0 STARLINK-5998,1 56468U 23064W   23332.74731495  .00004502  00000-0  38433-3 0  9992,2 56468  70.0007  81.9007 0003031 273.2768  86.8045 14.98380356 30991,6950.037,96.104,574.009,569.796,0.0
56468.0,STARLINK-5998,PAYLOAD,2023-11-29 11:33:42,14.9830203,0.0002965,70.0005,80.0493,266.3053,93.7767,-9.8932e-05,-1.272e-05,0.0,0 STARLINK-5998,1 56468U 23064W   23333.48173751 -.00001272  00000-0 -98932-4 0  9993,2 56468  70.0005  80.0493 0002965 266.3053  93.7767 14.98302030 31108,6950.279,96.109,574.205,570.084,0.0
56468.0,STARLINK-5998,PAYLOAD,2023-11-29 14:45:58,14.98303211,0.0002736,70.0012,79.7136,261.8577,98.2271,-9.6971e-05,-1.249e-05,0.0,0 STARLINK-5998,1 56468U 23064W   23333.61525865 -.00001249  00000-0 -96971-4 0  9990,2 56468  70.0012  79.7136 0002736 261.8577  98.2271 14.98303211 30765,6950.276,96.109,574.042,570.239,0.0
56468.0,STARLINK-5998,PAYLOAD,2023-11-30 11:35:42,14.98323406,0.0003061,70.0004,77.5253,264.6161,95.4649,-0.00024772,-3.047e-05,0.0,0 STARLINK-5998,1 56468U 23064W   23334.48313579 -.00003047  00000-0 -24772-3 0  9990,2 56468  70.0004  77.5253 0003061 264.6161  95.4649 14.98323406 31255,6950.213,96.107,574.206,569.951,0.0
56468.0,STARLINK-5998,PAYLOAD,2023-12-01 16:26:08,14.98308249,0.0002566,70.0028,74.4995,255.7152,104.3722,0.00020814,2.39e-05,0.0,0 STARLINK-5998,1 56468U 23064W   23335.68481586  .00002390  00000-0  20814-3 0  9998,2 56468  70.0028  74.4995 0002566 255.7152 104.3722 14.98308249 31430,6950.26,96.108,573.909,570.342,0.0
56468.0,STARLINK-5998,PAYLOAD,2023-12-02 11:39:42,14.98343224,0.0002589,70.0011,72.4759,253.965,106.1224,0.00029374,3.415e-05,0.0,0 STARLINK-5998,1 56468U 23064W   23336.48591086  .00003415  00000-0  29374-3 0  9993,2 56468  70.0011  72.4759 0002589 253.9650 106.1224 14.98343224 31558,6950.152,96.106,573.816,570.218,0.0
56468.0,STARLINK-5998,PAYLOAD,2023-12-02 13:15:50,14.98341272,0.0002284,70.0008,72.3038,261.8228,98.2672,0.00035307,4.123e-05,0.0,0 STARLINK-5998,1 56468U 23064W   23336.55267090  .00004123  00000-0  35307-3 0  9996,2 56468  70.0008  72.3038 0002284 261.8228  98.2672 14.98341272 31205,6950.158,96.106,573.61,570.436,0.0
56468.0,STARLINK-5998,PAYLOAD,2023-12-02 16:28:06,14.98349039,0.0002281,70.0014,71.9694,264.0273,96.0627,0.00041085,4.815e-05,0.0,0 STARLINK-5998,1 56468U 23064W   23336.68618315  .00004815  00000-0  41085-3 0  9998,2 56468  70.0014  71.9694 0002281 264.0273  96.0627 14.98349039 31583,6950.134,96.106,573.584,570.414,0.0
56468.0,STARLINK-5998,PAYLOAD,2023-12-03 11:41:48,14.9828855,0.0003162,70.0001,69.9504,278.3002,81.7799,-0.00033921,-4.134e-05,0.0,0 STARLINK-5998,1 56468U 23064W   23337.48736437 -.00004134  00000-0 -33921-3 0  9999,2 56468  70.0001  69.9504 0003162 278.3002  81.7799 14.98288550 31708,6950.321,96.11,574.384,569.988,0.0
56468.0,STARLINK-5998,PAYLOAD,2023-12-03 13:17:56,14.98289248,0.0002355,70.0012,69.7832,256.6718,103.4178,-0.00036676,-4.461e-05,0.0,0 STARLINK-5998,1 56468U 23064W   23337.55412630 -.00004461  00000-0 -36676-3 0  9996,2 56468  70.0012  69.7832 0002355 256.6718 103.4178 14.98289248 31357,6950.319,96.11,573.821,570.547,0.0
56468.0,STARLINK-5998,PAYLOAD,2023-12-04 11:43:48,14.98328022,0.0002685,70.0013,67.4267,278.003,82.0824,-0.00029925,-3.661e-05,0.0,0 STARLINK-5998,1 56468U 23064W   23338.48875066 -.00003661  00000-0 -29925-3 0  9995,2 56468  70.0013  67.4267 0002685 278.0030  82.0824 14.98328022 31855,6950.199,96.107,573.93,570.198,0.0
56468.0,STARLINK-5998,PAYLOAD,2023-12-04 13:19:55,14.9833131,0.000239,70.0011,67.2581,270.8161,89.2724,-0.00032168,-3.929e-05,0.0,0 STARLINK-5998,1 56468U 23064W   23338.55550891 -.00003929  00000-0 -32168-3 0  9999,2 56468  70.0011  67.2581 0002390 270.8161  89.2724 14.98331310 31502,6950.189,96.107,573.715,570.393,0.0
56468.0,STARLINK-5998,PAYLOAD,2023-12-04 16:32:11,14.98330491,0.000243,70.0016,66.9215,269.9452,90.1429,-0.00024866,-3.059e-05,0.0,0 STARLINK-5998,1 56468U 23064W   23338.68902672 -.00003059  00000-0 -24866-3 0  9991,2 56468  70.0016  66.9215 0002430 269.9452  90.1429 14.98330491 31528,6950.191,96.107,573.745,570.367,0.0
56468.0,STARLINK-5998,PAYLOAD,2023-12-05 13:21:55,14.98319779,0.0003041,70.0002,64.7328,280.1921,79.8895,0.00052447,6.169e-05,0.0,0 STARLINK-5998,1 56468U 23064W   23339.55689642  .00006169  00000-0  52447-3 0  9996,2 56468  70.0002  64.7328 0003041 280.1921  79.8895 14.98319779 31650,6950.224,96.108,574.203,569.976,0.0
56468.0,STARLINK-5998,PAYLOAD,2023-12-06 11:47:48,14.98342119,0.0003019,70.0002,62.3764,280.1477,79.9342,8.3743e-05,9.07e-06,0.0,0 STARLINK-5998,1 56468U 23064W   23340.49153303  .00000907  00000-0  83743-4 0  9999,2 56468  70.0002  62.3764 0003019 280.1477  79.9342 14.98342119 32157,6950.155,96.106,574.119,569.922,0.0
56468.0,STARLINK-5998,PAYLOAD,2023-12-06 13:23:56,14.98337557,0.0003194,70.0002,62.2082,281.052,79.0279,0.00017048,1.942e-05,0.0,0 STARLINK-5998,1 56468U 23064W   23340.55829335  .00001942  00000-0  17048-3 0  9995,2 56468  70.0002  62.2082 0003194 281.0520  79.0279 14.98337557 31803,6950.17,96.107,574.254,569.815,0.0
56468.0,STARLINK-5998,PAYLOAD,2023-12-07 11:49:49,14.98348179,0.0002476,70.0018,59.8546,264.6756,95.412,-0.00031033,-3.795e-05,0.0,0 STARLINK-5998,1 56468U 23064W   23341.49293296 -.00003795  00000-0 -31033-3 0  9990,2 56468  70.0018  59.8546 0002476 264.6756  95.4120 14.98348179 32302,6950.137,96.106,573.723,570.281,0.0
